[{"OBJECT_NAME":"INSAT-1C","OBJECT_ID":"1988-063A","EPOCH":"2026-03-14T19:19:50.860992","MEAN_MOTION":1.00238466,"ECCENTRICITY":0.00042227,"INCLINATION":11.4492,"RA_OF_ASC_NODE":328.402,"ARG_OF_PERICENTER":122.4221,"MEAN_ANOMALY":98.6228,"EPHEMERIS_TYPE":0,"CLASSIFICATION_TYPE":"U","NORAD_CAT_ID":19330,"ELEMENT_SET_NO":999,"REV_AT_EPOCH":11939,"BSTAR":0,"MEAN_MOTION_DOT":-2.04e-6,"MEAN_MOTION_DDOT":0},{"OBJECT_NAME":"COSMOS 1961","OBJECT_ID":"1988-066A","EPOCH":"2026-03-14T19:15:05.357376","MEAN_MOTION":1.00274209,"ECCENTRICITY":0.00017929,"INCLINATION":11.5833,"RA_OF_ASC_NODE":330.3352,"ARG_OF_PERICENTER":152.5236,"MEAN_ANOMALY":58.5622,"EPHEMERIS_TYPE":0,"CLASSIFICATION_TYPE":"U","NORAD_CAT_ID":19344,"ELEMENT_SET_NO":999,"REV_AT_EPOCH":13806,"BSTAR":0,"MEAN_MOTION_DOT":-1.48e-6,"MEAN_MOTION_DDOT":0},{"OBJECT_NAME":"GORIZONT 16","OBJECT_ID":"1988-071A","EPOCH":"2026-03-12T23:55:16.108608","MEAN_MOTION":0.99987296,"ECCENTRICITY":0.00121751,"INCLINATION":11.6529,"RA_OF_ASC_NODE":330.4465,"ARG_OF_PERICENTER":78.3718,"MEAN_ANOMALY":105.6247,"EPHEMERIS_TYPE":0,"CLASSIFICATION_TYPE":"U","NORAD_CAT_ID":19397,"ELEMENT_SET_NO":999,"REV_AT_EPOCH":13727,"BSTAR":0,"MEAN_MOTION_DOT":-1.73e-6,"MEAN_MOTION_DDOT":0},{"OBJECT_NAME":"SL-12 R/B(2)","OBJECT_ID":"1988-071D","EPOCH":"2026-03-14T20:39:35.680896","MEAN_MOTION":1.00549789,"ECCENTRICITY":0.00188311,"INCLINATION":11.3758,"RA_OF_ASC_NODE":329.6694,"ARG_OF_PERICENTER":241.1323,"MEAN_ANOMALY":307.7596,"EPHEMERIS_TYPE":0,"CLASSIFICATION_TYPE":"U","NORAD_CAT_ID":19400,"ELEMENT_SET_NO":999,"REV_AT_EPOCH":13175,"BSTAR":0,"MEAN_MOTION_DOT":1.27e-6,"MEAN_MOTION_DDOT":0},{"OBJECT_NAME":"GSTAR 3","OBJECT_ID":"1988-081A","EPOCH":"2026-03-14T04:35:09.013920","MEAN_MOTION":1.00271996,"ECCENTRICITY":0.00044347,"INCLINATION":11.2507,"RA_OF_ASC_NODE":319.0721,"ARG_OF_PERICENTER":217.3414,"MEAN_ANOMALY":318.8834,"EPHEMERIS_TYPE":0,"CLASSIFICATION_TYPE":"U","NORAD_CAT_ID":19483,"ELEMENT_SET_NO":999,"REV_AT_EPOCH":13364,"BSTAR":0,"MEAN_MOTION_DOT":-9.7e-7,"MEAN_MOTION_DDOT":0},{"OBJECT_NAME":"SBS 5","OBJECT_ID":"1988-081B","EPOCH":"2026-03-12T00:48:38.788992","MEAN_MOTION":0.99796703,"ECCENTRICITY":0.00085015,"INCLINATION":14.5835,"RA_OF_ASC_NODE":1.6648,"ARG_OF_PERICENTER":318.6822,"MEAN_ANOMALY":228.3683,"EPHEMERIS_TYPE":0,"CLASSIFICATION_TYPE":"U","NORAD_CAT_ID":19484,"ELEMENT_SET_NO":999,"REV_AT_EPOCH":4549,"BSTAR":0,"MEAN_MOTION_DOT":-5.7e-7,"MEAN_MOTION_DDOT":0},{"OBJECT_NAME":"TDRS 3","OBJECT_ID":"1988-091B","EPOCH":"2026-03-14T04:51:38.553120","MEAN_MOTION":1.00275639,"ECCENTRICITY":0.00424289,"INCLINATION":12.6751,"RA_OF_ASC_NODE":341.6235,"ARG_OF_PERICENTER":353.8077,"MEAN_ANOMALY":220.4028,"EPHEMERIS_TYPE":0,"CLASSIFICATION_TYPE":"U","NORAD_CAT_ID":19548,"ELEMENT_SET_NO":999,"REV_AT_EPOCH":12443,"BSTAR":0,"MEAN_MOTION_DOT":-2.91e-6,"MEAN_MOTION_DDOT":0},{"OBJECT_NAME":"IUS R/B(2)","OBJECT_ID":"1988-091D","EPOCH":"2026-03-14T03:04:40.190880","MEAN_MOTION":1.00475226,"ECCENTRICITY":0.00206035,"INCLINATION":12.3257,"RA_OF_ASC_NODE":331.6785,"ARG_OF_PERICENTER":304.9006,"MEAN_ANOMALY":239.1087,"EPHEMERIS_TYPE":0,"CLASSIFICATION_TYPE":"U","NORAD_CAT_ID":19550,"ELEMENT_SET_NO":999,"REV_AT_EPOCH":12915,"BSTAR":0,"MEAN_MOTION_DOT":-2.94e-6,"MEAN_MOTION_DDOT":0},{"OBJECT_NAME":"RADUGA 22","OBJECT_ID":"1988-095A","EPOCH":"2026-03-14T22:18:30.852000","MEAN_MOTION":1.00165856,"ECCENTRICITY":0.0004421,"INCLINATION":11.6656,"RA_OF_ASC_NODE":330.7555,"ARG_OF_PERICENTER":203.8466,"MEAN_ANOMALY":65.8769,"EPHEMERIS_TYPE":0,"CLASSIFICATION_TYPE":"U","NORAD_CAT_ID":19596,"ELEMENT_SET_NO":999,"REV_AT_EPOCH":12070,"BSTAR":0,"MEAN_MOTION_DOT":-2.43e-6,"MEAN_MOTION_DDOT":0},{"OBJECT_NAME":"STTW-3","OBJECT_ID":"1988-111A","EPOCH":"2026-03-14T19:05:40.715232","MEAN_MOTION":1.00195434,"ECCENTRICITY":0.00033483,"INCLINATION":14.1,"RA_OF_ASC_NODE":346.2705,"ARG_OF_PERICENTER":194.6964,"MEAN_ANOMALY":344.4547,"EPHEMERIS_TYPE":0,"CLASSIFICATION_TYPE":"U","NORAD_CAT_ID":19710,"ELEMENT_SET_NO":999,"REV_AT_EPOCH":12989,"BSTAR":0,"MEAN_MOTION_DOT":-1.0e-7,"MEAN_MOTION_DDOT":0},{"OBJECT_NAME":"IUS R/B(2)","OBJECT_ID":"1989-021D","EPOCH":"2026-03-14T16:01:18.352992","MEAN_MOTION":1.00619885,"ECCENTRICITY":0.00227017,"INCLINATION":8.8592,"RA_OF_ASC_NODE":320.9905,"ARG_OF_PERICENTER":192.2249,"MEAN_ANOMALY":353.2501,"EPHEMERIS_TYPE":0,"CLASSIFICATION_TYPE":"U","NORAD_CAT_ID":19913,"ELEMENT_SET_NO":999,"REV_AT_EPOCH":12470,"BSTAR":0,"MEAN_MOTION_DOT":-3.2e-6,"MEAN_MOTION_DDOT":0},{"OBJECT_NAME":"RADUGA 23","OBJECT_ID":"1989-030A","EPOCH":"2026-03-14T14:36:38.876256","MEAN_MOTION":1.00256998,"ECCENTRICITY":0.00185906,"INCLINATION":11.9139,"RA_OF_ASC_NODE":332.6058,"ARG_OF_PERICENTER":209.0809,"MEAN_ANOMALY":328.1561,"EPHEMERIS_TYPE":0,"CLASSIFICATION_TYPE":"U","NORAD_CAT_ID":19928,"ELEMENT_SET_NO":999,"REV_AT_EPOCH":13390,"BSTAR":0,"MEAN_MOTION_DOT":-3.67e-6,"MEAN_MOTION_DDOT":0},{"OBJECT_NAME":"SUPERBIRD-A","OBJECT_ID":"1989-041A","EPOCH":"2026-03-14T22:15:19.000800","MEAN_MOTION":0.99754153,"ECCENTRICITY":0.00040021,"INCLINATION":12.2857,"RA_OF_ASC_NODE":332.9469,"ARG_OF_PERICENTER":52.8617,"MEAN_ANOMALY":131.8178,"EPHEMERIS_TYPE":0,"CLASSIFICATION_TYPE":"U","NORAD_CAT_ID":20040,"ELEMENT_SET_NO":999,"REV_AT_EPOCH":13352,"BSTAR":0,"MEAN_MOTION_DOT":-2.7e-7,"MEAN_MOTION_DDOT":0},{"OBJECT_NAME":"DFS 1","OBJECT_ID":"1989-041B","EPOCH":"2026-03-14T19:03:10.954656","MEAN_MOTION":1.00669219,"ECCENTRICITY":0.00172737,"INCLINATION":14.0367,"RA_OF_ASC_NODE":347.272,"ARG_OF_PERICENTER":309.4016,"MEAN_ANOMALY":219.0371,"EPHEMERIS_TYPE":0,"CLASSIFICATION_TYPE":"U","NORAD_CAT_ID":20041,"ELEMENT_SET_NO":999,"REV_AT_EPOCH":12354,"BSTAR":0,"MEAN_MOTION_DOT":-2.7e-7,"MEAN_MOTION_DDOT":0},{"OBJECT_NAME":"TVSAT 2","OBJECT_ID":"1989-062A","EPOCH":"2026-03-14T01:38:10.986144","MEAN_MOTION":0.99856024,"ECCENTRICITY":0.00018924,"INCLINATION":14.6954,"RA_OF_ASC_NODE":356.5103,"ARG_OF_PERICENTER":210.4019,"MEAN_ANOMALY":343.8536,"EPHEMERIS_TYPE":0,"CLASSIFICATION_TYPE":"U","NORAD_CAT_ID":20168,"ELEMENT_SET_NO":999,"REV_AT_EPOCH":13355,"BSTAR":0,"MEAN_MOTION_DOT":-1.34e-6,"MEAN_MOTION_DDOT":0},{"OBJECT_NAME":"FLTSATCOM 8 (USA 46)","OBJECT_ID":"1989-077A","EPOCH":"2026-03-14T16:20:09.640032","MEAN_MOTION":1.00282205,"ECCENTRICITY":0.00083471,"INCLINATION":12.4478,"RA_OF_ASC_NODE":351.7301,"ARG_OF_PERICENTER":349.8228,"MEAN_ANOMALY":201.2281,"EPHEMERIS_TYPE":0,"CLASSIFICATION_TYPE":"U","NORAD_CAT_ID":20253,"ELEMENT_SET_NO":999,"REV_AT_EPOCH":25961,"BSTAR":0,"MEAN_MOTION_DOT":-3.6e-6,"MEAN_MOTION_DDOT":0},{"OBJECT_NAME":"GORIZONT 19","OBJECT_ID":"1989-081A","EPOCH":"2026-03-14T17:55:04.881792","MEAN_MOTION":1.00207748,"ECCENTRICITY":0.00057805,"INCLINATION":12.1788,"RA_OF_ASC_NODE":334.1238,"ARG_OF_PERICENTER":284.9755,"MEAN_ANOMALY":280.4302,"EPHEMERIS_TYPE":0,"CLASSIFICATION_TYPE":"U","NORAD_CAT_ID":20263,"ELEMENT_SET_NO":999,"REV_AT_EPOCH":4639,"BSTAR":0,"MEAN_MOTION_DOT":-2.9e-6,"MEAN_MOTION_DDOT":0}]
