INSAT-1C                
1 19330U 88063A   26073.80544978 -.00000204  00000+0  00000+0 0  9999
2 19330  11.4492 328.4020 0004222 122.4221  98.6228  1.00238466119390
COSMOS 1961             
1 19344U 88066A   26073.80214534 -.00000148  00000+0  00000+0 0  9996
2 19344  11.5833 330.3352 0001792 152.5236  58.5622  1.00274209138067
GORIZONT 16             
1 19397U 88071A   26071.99671422 -.00000173  00000+0  00000+0 0  9999
2 19397  11.6529 330.4465 0012175  78.3718 105.6247  0.99987296137274
SL-12 R/B(2)            
1 19400U 88071D   26073.86082964  .00000127  00000+0  00000+0 0  9997
2 19400  11.3758 329.6694 0018831 241.1323 307.7596  1.00549789131754
GSTAR 3                 
1 19483U 88081A   26073.19107655 -.00000097  00000+0  00000+0 0  9997
2 19483  11.2507 319.0721 0004434 217.3414 318.8834  1.00271996133640
SBS 5                   
1 19484U 88081B   26071.03378228 -.00000057  00000+0  00000+0 0  9991
2 19484  14.5835   1.6648 0008501 318.6822 228.3683  0.99796703 45497
TDRS 3                  
1 19548U 88091B   26073.20252955 -.00000291  00000+0  00000+0 0  9992
2 19548  12.6751 341.6235 0042428 353.8077 220.4028  1.00275639124433
IUS R/B(2)              
1 19550U 88091D   26073.12824295 -.00000294  00000+0  00000+0 0  9991
2 19550  12.3257 331.6785 0020603 304.9006 239.1087  1.00475226129153
RADUGA 22               
1 19596U 88095A   26073.92952375 -.00000243  00000+0  00000+0 0  9998
2 19596  11.6656 330.7555 0004421 203.8466  65.8769  1.00165856120708
STTW-3                  
1 19710U 88111A   26073.79561013 -.00000010  00000+0  00000+0 0  9997
2 19710  14.1000 346.2705 0003348 194.6964 344.4547  1.00195434129897
IUS R/B(2)              
1 19913U 89021D   26073.66757353 -.00000320  00000+0  00000+0 0  9997
2 19913   8.8592 320.9905 0022701 192.2249 353.2501  1.00619885124707
RADUGA 23               
1 19928U 89030A   26073.60878329 -.00000367  00000+0  00000+0 0  9995
2 19928  11.9139 332.6058 0018590 209.0809 328.1561  1.00256998133905
SUPERBIRD-A             
1 20040U 89041A   26073.92730325 -.00000027  00000+0  00000+0 0  9995
2 20040  12.2857 332.9469 0004002  52.8617 131.8178  0.99754153133520
DFS 1                   
1 20041U 89041B   26073.79387679 -.00000027  00000+0  00000+0 0  9991
2 20041  14.0367 347.2720 0017273 309.4016 219.0371  1.00669219123540
TVSAT 2                 
1 20168U 89062A   26073.06818271 -.00000134  00000+0  00000+0 0  9990
2 20168  14.6954 356.5103 0001892 210.4019 343.8536  0.99856024133550
FLTSATCOM 8 (USA 46)    
1 20253U 89077A   26073.68066713 -.00000360  00000+0  00000+0 0  9996
2 20253  12.4478 351.7301 0008347 349.8228 201.2281  1.00282205259617
GORIZONT 19             
1 20263U 89081A   26073.74658428 -.00000290  00000+0  00000+0 0  9991
2 20263  12.1788 334.1238 0005780 284.9755 280.4302  1.00207748 46396
